IRIDIUM 150             
1 43257U 18030J   25061.58272502  .00000088  00000+0  24251-4 0  9991
2 43257  86.3975 127.6504 0002183  88.0862 272.0583 14.34215328362564
IRIDIUM 143             
1 43258U 18030K   25061.56369669  .00000146  00000+0  44932-4 0  9994
2 43258  86.3981 127.7324 0002170  83.4578 276.6865 14.34216118362495
IRIDIUM 161             
1 43478U 18047C   25061.58063143  .00000218  00000+0  58708-4 0  9992
2 43478  86.4450 285.5370 0002107  86.2840 273.8602 14.43277810357115
IRIDIUM 152             
1 43479U 18047D   25061.60618372  .00000053  00000+0  11755-4 0  9994
2 43479  86.3924 285.3862 0002163  89.0255 271.1188 14.34217515354896
IRIDIUM 147             
1 43480U 18047E   25061.61252617  .00000417  00000+0  14198-3 0  9990
2 43480  86.3927 285.3802 0002007  93.9922 266.1503 14.34217464354895
IRIDIUM 110             
1 43481U 18047F   25061.61886905  .00000060  00000+0  14530-4 0  9999
2 43481  86.3927 285.4572 0002375  98.3711 261.7754 14.34216747354885
IRIDIUM 162             
1 43482U 18047G   25061.57432712  .00000688  00000+0  19847-3 0  9999
2 43482  86.4447 285.4363 0002430  89.3119 270.8361 14.43281104357108
IRIDIUM 160             
1 43569U 18061A   25061.56470341 -.00000013  00000+0 -11834-4 0  9993
2 43569  86.3920 253.8264 0001987  96.7237 263.4185 14.34217412345770
